IRIDIUM 7               
1 24793U 97020B   25156.60967399  .00000351  00000+0  11411-3 0  9990
2 24793  86.3986 181.7584 0002477  96.8153 263.3326 14.35932309470457
IRIDIUM 5               
1 24795U 97020D   25156.79128804  .00002605  00000+0  21287-3 0  9998
2 24795  86.3880  88.9868 0108885 177.8594 182.3125 14.94280803483769
IRIDIUM 4               
1 24796U 97020E   25156.60038822  .00000303  00000+0  96042-4 0  9994
2 24796  86.3980 178.6505 0002266  93.6856 266.4601 14.36834784470801
IRIDIUM 914             
1 24836U 97030A   25156.63580331  .00000393  00000+0  11657-3 0  9997
2 24836  86.3962 187.2660 0000870 115.7741 244.3548 14.40863532605467
IRIDIUM 16              
1 24841U 97030F   25156.64798488  .00000379  00000+0  11722-3 0  9995
2 24841  86.4060 210.1184 0004583  98.2214 261.9504 14.38708139465341
IRIDIUM 911             
1 24842U 97030G   25156.64221344  .00000506  00000+0  13176-3 0  9995
2 24842  86.4485 208.9030 0016040 130.4001 229.8605 14.47629863473410
IRIDIUM 17              
1 24870U 97034B   25156.76732026  .00000391  00000+0  12320-3 0  9999
2 24870  86.3969 239.5512 0003721  77.6293 282.5321 14.37820739461949
IRIDIUM 920             
1 24871U 97034C   25156.70061965  .00000380  00000+0  11068-3 0  9997
2 24871  86.3997 218.8384 0013737 115.4664 244.7959 14.41526104464921
